CSS (TIANHE)            
1 48274U 21035A   24232.21818686  .00051394  00000+0  59130-3 0  9991
2 48274  41.4682  58.9950 0002835 273.4039  86.6476 15.61145747188953
